[{"OBJECT_NAME":"UHETSAT","OBJECT_ID":"2023-185E","EPOCH":"2026-03-09T22:39:26.455680","MEAN_MOTION":15.29797662,"ECCENTRICITY":0.00118435,"INCLINATION":97.3584,"RA_OF_ASC_NODE":137.3576,"ARG_OF_PERICENTER":307.7346,"MEAN_ANOMALY":52.2821,"EPHEMERIS_TYPE":0,"CLASSIFICATION_TYPE":"U","NORAD_CAT_ID":58466,"ELEMENT_SET_NO":999,"REV_AT_EPOCH":12611,"BSTAR":0.00030513019,"MEAN_MOTION_DOT":8.749e-5,"MEAN_MOTION_DDOT":0},{"OBJECT_NAME":"STARLINK-34606","OBJECT_ID":"2025-144G","EPOCH":"2026-03-09T15:00:19.674144","MEAN_MOTION":15.30188216,"ECCENTRICITY":8.54e-5,"INCLINATION":53.1601,"RA_OF_ASC_NODE":181.2267,"ARG_OF_PERICENTER":103.2301,"MEAN_ANOMALY":256.8795,"EPHEMERIS_TYPE":0,"CLASSIFICATION_TYPE":"U","NORAD_CAT_ID":64730,"ELEMENT_SET_NO":999,"REV_AT_EPOCH":3970,"BSTAR":0.0011569,"MEAN_MOTION_DOT":0.00034051,"MEAN_MOTION_DDOT":0}]
